OBJECT_NAME,OBJECT_ID,EPOCH,MEAN_MOTION,ECCENTRICITY,INCLINATION,RA_OF_ASC_NODE,ARG_OF_PERICENTER,MEAN_ANOMALY,EPHEMERIS_TYPE,CLASSIFICATION_TYPE,NORAD_CAT_ID,ELEMENT_SET_NO,REV_AT_EPOCH,BSTAR,MEAN_MOTION_DOT,MEAN_MOTION_DDOT
AEHF-6 (USA 298),2020-022B,2026-07-05T14:21:38.894976,1.00275753,.00419453,2.5097,301.3451,15.9266,319.4386,0,U,45465,999,2319,0,-.283E-5,0
STARLINK-1329,2020-025A,2026-07-05T07:01:36.338880,15.77312168,.00037598,53.0385,220.6890,358.4618,1.6389,0,U,45531,999,34391,.66527539E-3,.112613E-2,0
STARLINK-1338,2020-025B,2026-07-05T12:23:18.456576,15.74223517,.00027114,53.0410,227.0568,53.0142,307.1124,0,U,45532,999,34384,.55030336E-3,.80881E-3,0
STARLINK-1350,2020-025E,2026-07-05T10:37:33.206880,15.39604804,.00022273,53.0700,198.9040,36.7725,323.3431,0,U,45535,999,34427,.21322416E-2,.85819E-3,0
STARLINK-1362,2020-025H,2026-07-04T15:06:03.010464,15.39962123,.00042976,53.1550,274.2101,312.5282,47.5360,0,U,45538,999,34313,.60116439E-2,.250978E-2,0
STARLINK-1368,2020-025K,2026-07-04T12:14:35.352960,15.40152911,.0002777,53.1571,275.1120,313.0809,46.9963,0,U,45540,999,34310,.29147E-2,.12014E-2,0
STARLINK-1371,2020-025M,2026-07-05T07:14:09.021984,15.71236290,.00021772,53.0402,238.5853,45.4276,314.6918,0,U,45542,999,34366,.62582572E-3,.81011E-3,0
STARLINK-1372,2020-025N,2026-07-04T15:44:08.744064,15.40559045,.0003271,53.1549,273.8387,295.1163,64.9502,0,U,45543,999,34223,.17491764E-2,.72458E-3,0
STARLINK-1373,2020-025P,2026-07-05T08:08:30.389568,15.73015670,.00027935,53.0428,233.1269,47.5488,312.5766,0,U,45544,999,34374,.51746211E-3,.72076E-3,0
STARLINK-1327,2020-025AA,2026-07-05T10:49:21.368928,15.74838654,.00025154,53.0380,209.7879,60.5853,299.5417,0,U,45555,999,34407,.59632704E-3,.90177E-3,0
STARLINK-1356,2020-025AK,2026-07-05T07:12:06.064416,15.67656033,.00042937,53.0399,224.6418,25.1533,334.9691,0,U,45564,999,34385,.62018532E-3,.6909E-3,0
STARLINK-1357,2020-025AL,2026-07-05T06:00:31.502304,15.72803918,.00013168,53.0423,180.6723,183.7187,176.3821,0,U,45565,999,34447,.67671541E-3,.93829E-3,0
STARLINK-1361,2020-025AN,2026-07-05T12:43:09.203232,15.71329785,.00025429,53.0397,221.5662,60.4430,299.6840,0,U,45567,999,34392,.51756848E-3,.67047E-3,0
STARLINK-1376,2020-025AR,2026-07-05T08:07:50.185056,15.40962985,.00018197,53.1543,246.9326,323.3360,36.7520,0,U,45570,999,34357,.1044001E-2,.43497E-3,0
STARLINK-1320,2020-025AT,2026-07-05T14:00:03.000384,15.97849118,.00049382,53.0348,113.8358,84.6522,13.8465,0,U,45572,999,602,.73327136E-3,.338458E-2,.58042332E-4
STARLINK-1321,2020-025AU,2026-07-05T11:11:59.073216,15.71839151,.00014181,53.0380,205.6712,63.3080,296.8083,0,U,45573,999,34383,.70723031E-3,.9414E-3,0
STARLINK-1331,2020-025AZ,2026-07-05T11:50:55.766400,15.71547756,.00019185,53.0434,212.4942,60.0774,300.0433,0,U,45578,999,34405,.51673934E-3,.6756E-3,0
STARLINK-1333,2020-025BB,2026-07-04T14:18:43.664544,15.37871179,.00033292,53.1543,252.5345,331.7626,28.3197,0,U,45580,999,34343,.15106801E-2,.57112E-3,0
STARLINK-1335,2020-025BC,2026-07-05T13:40:35.683680,15.39699388,.00030572,53.1514,244.3353,302.4188,57.6521,0,U,45581,999,34362,.1331798E-2,.5339E-3,0
STARLINK-1337,2020-025BD,2026-07-05T10:55:30.336672,15.78862012,.0001936,53.0414,200.2616,85.5203,274.6038,0,U,45582,999,34420,.622468E-3,.112906E-2,0
STARLINK-1347,2020-025BH,2026-07-05T05:47:14.372448,15.71736715,.00017974,53.0357,173.1051,38.4901,321.6244,0,U,45586,999,34456,.72236243E-3,.95771E-3,0
STARLINK-1364,2020-025BL,2026-07-05T07:09:58.767840,15.72520640,.00042711,53.0398,209.3706,27.3106,332.8135,0,U,45589,999,34406,.62335393E-3,.85285E-3,0
STARLINK-1365,2020-025BM,2026-07-05T12:59:14.431200,15.67873291,.0001936,53.0421,243.7097,34.3086,325.8054,0,U,45590,999,34362,.51893317E-3,.58137E-3,0
XINGYUN-2 01,2020-028A,2026-07-05T14:35:33.537120,15.11884557,.0010285,97.4871,178.6446,132.3998,227.8105,0,U,45602,999,33762,.12309319E-3,.2045E-4,0
XINGYUN-2 02,2020-028B,2026-07-05T14:09:30.292416,15.11614436,.00100651,97.5071,192.2587,199.1426,160.9427,0,U,45603,999,33761,.20063163E-3,.3347E-4,0
COSMOS 2546,2020-031A,2026-07-01T11:24:57.138912,2.00601820,.70913265,63.1790,64.8061,266.3458,17.5125,0,U,45608,999,4475,0,-.241E-5,0
GAOFEN-9 02,2020-034B,2026-07-05T16:15:57.866112,15.26164582,.00125875,97.5779,344.2613,10.6725,349.4778,0,U,45625,999,33898,.35629403E-3,.9154E-4,0
STARLINK-1443,2020-035D,2026-07-05T07:01:50.396160,15.34785725,.00020605,53.1300,238.4602,33.1906,326.9225,0,U,45660,999,33676,.18678848E-2,.6406E-3,0
STARLINK-1446,2020-035G,2026-07-05T08:21:20.426112,15.49339202,.0002157,53.0199,157.9498,0.4987,359.6022,0,U,45663,999,33787,.67894552E-3,.37539E-3,0
STARLINK-1448,2020-035J,2026-07-05T10:18:01.551168,15.76154381,.00023259,53.0393,195.8079,76.0232,284.1046,0,U,45665,999,33734,.4942853E-3,.78975E-3,0
