AEHF-6 (USA 298)        
1 45465U 20022B   26186.59836684 -.00000283  00000+0  00000+0 0  9994
2 45465   2.5097 301.3451 0041945  15.9266 319.4386  1.00275753 23197
STARLINK-1329           
1 45531U 20025A   26186.29278170  .00112613  00000+0  66528-3 0  9999
2 45531  53.0385 220.6890 0003759 358.4618   1.6389 15.77312168343918
STARLINK-1338           
1 45532U 20025B   26186.51618584  .00080881  00000+0  55030-3 0  9999
2 45532  53.0410 227.0568 0002711  53.0142 307.1124 15.74223517343847
STARLINK-1350           
1 45535U 20025E   26186.44274545  .00085819  00000+0  21322-2 0  9991
2 45535  53.0700 198.9040 0002227  36.7725 323.3431 15.39604804344272
STARLINK-1362           
1 45538U 20025H   26185.62920151  .00250978  00000+0  60116-2 0  9998
2 45538  53.1550 274.2101 0004297 312.5282  47.5360 15.39962123343138
STARLINK-1368           
1 45540U 20025K   26185.51013140  .00120140  00000+0  29147-2 0  9996
2 45540  53.1571 275.1120 0002777 313.0809  46.9963 15.40152911343104
STARLINK-1371           
1 45542U 20025M   26186.30149331  .00081011  00000+0  62583-3 0  9993
2 45542  53.0402 238.5853 0002177  45.4276 314.6918 15.71236290343665
STARLINK-1372           
1 45543U 20025N   26185.65565676  .00072458  00000+0  17492-2 0  9998
2 45543  53.1549 273.8387 0003271 295.1163  64.9502 15.40559045342236
STARLINK-1373           
1 45544U 20025P   26186.33924062  .00072076  00000+0  51746-3 0  9990
2 45544  53.0428 233.1269 0002793  47.5488 312.5766 15.73015670343745
STARLINK-1327           
1 45555U 20025AA  26186.45094177  .00090177  00000+0  59633-3 0  9995
2 45555  53.0380 209.7879 0002515  60.5853 299.5417 15.74838654344073
STARLINK-1356           
1 45564U 20025AK  26186.30007019  .00069090  00000+0  62019-3 0  9990
2 45564  53.0399 224.6418 0004293  25.1533 334.9691 15.67656033343859
STARLINK-1357           
1 45565U 20025AL  26186.25036461  .00093829  00000+0  67672-3 0  9995
2 45565  53.0423 180.6723 0001316 183.7187 176.3821 15.72803918344471
STARLINK-1361           
1 45567U 20025AN  26186.52996763  .00067047  00000+0  51757-3 0  9997
2 45567  53.0397 221.5662 0002542  60.4430 299.6840 15.71329785343927
STARLINK-1376           
1 45570U 20025AR  26186.33877529  .00043497  00000+0  10440-2 0  9994
2 45570  53.1543 246.9326 0001819 323.3360  36.7520 15.40962985343579
STARLINK-1320           
1 45572U 20025AT  26186.58336806  .00338458  58042-4  73327-3 0  9993
2 45572  53.0348 113.8358 0004938  84.6522  13.8465 15.97849118  6026
STARLINK-1321           
1 45573U 20025AU  26186.46665594  .00094140  00000+0  70723-3 0  9990
2 45573  53.0380 205.6712 0001418  63.3080 296.8083 15.71839151343830
STARLINK-1331           
1 45578U 20025AZ  26186.49370100  .00067560  00000+0  51674-3 0  9994
2 45578  53.0434 212.4942 0001918  60.0774 300.0433 15.71547756344054
STARLINK-1333           
1 45580U 20025BB  26185.59633871  .00057112  00000+0  15107-2 0  9996
2 45580  53.1543 252.5345 0003329 331.7626  28.3197 15.37871179343432
STARLINK-1335           
1 45581U 20025BC  26186.56985745  .00053390  00000+0  13318-2 0  9991
2 45581  53.1514 244.3353 0003057 302.4188  57.6521 15.39699388343624
STARLINK-1337           
1 45582U 20025BD  26186.45521223  .00112906  00000+0  62247-3 0  9992
2 45582  53.0414 200.2616 0001936  85.5203 274.6038 15.78862012344205
STARLINK-1347           
1 45586U 20025BH  26186.24113857  .00095771  00000+0  72236-3 0  9992
2 45586  53.0357 173.1051 0001797  38.4901 321.6244 15.71736715344567
STARLINK-1364           
1 45589U 20025BL  26186.29859685  .00085285  00000+0  62335-3 0  9994
2 45589  53.0398 209.3706 0004271  27.3106 332.8135 15.72520640344065
STARLINK-1365           
1 45590U 20025BM  26186.54113925  .00058137  00000+0  51893-3 0  9997
2 45590  53.0421 243.7097 0001936  34.3086 325.8054 15.67873291343629
XINGYUN-2 01            
1 45602U 20028A   26186.60802705  .00002045  00000+0  12309-3 0  9998
2 45602  97.4871 178.6446 0010285 132.3998 227.8105 15.11884557337623
XINGYUN-2 02            
1 45603U 20028B   26186.58993394  .00003347  00000+0  20063-3 0  9993
2 45603  97.5071 192.2587 0010065 199.1426 160.9427 15.11614436337618
COSMOS 2546             
1 45608U 20031A   26182.47566133 -.00000241  00000+0  00000+0 0  9999
2 45608  63.1790  64.8061 7091326 266.3458  17.5125  2.00601820 44758
GAOFEN-9 02             
1 45625U 20034B   26186.67775308  .00009154  00000+0  35629-3 0  9993
2 45625  97.5779 344.2613 0012587  10.6725 349.4778 15.26164582338988
STARLINK-1443           
1 45660U 20035D   26186.29294440  .00064060  00000+0  18679-2 0  9996
2 45660  53.1300 238.4602 0002060  33.1906 326.9225 15.34785725336761
STARLINK-1446           
1 45663U 20035G   26186.34815308  .00037539  00000+0  67895-3 0  9993
2 45663  53.0199 157.9498 0002157   0.4987 359.6022 15.49339202337872
STARLINK-1448           
1 45665U 20035J   26186.42918462  .00078975  00000+0  49429-3 0  9991
2 45665  53.0393 195.8079 0002325  76.0232 284.1046 15.76154381337348
